CCSDS_OMM_VERS = 2.0
CREATION_DATE  = 
ORIGINATOR     = 

OBJECT_NAME    = UNKNOWN
OBJECT_ID      = 
CENTER_NAME    = EARTH
REF_FRAME      = TEME
TIME_SYSTEM    = UTC
MEAN_ELEMENT_THEORY = SGP/SGP4

EPOCH          = 2025-11-01T09:43:26.864256
MEAN_MOTION    = 6.21139280
ECCENTRICITY   = .456727
INCLINATION    = 23.8032
RA_OF_ASC_NODE = 217.5949
ARG_OF_PERICENTER = 140.3808
MEAN_ANOMALY   = 264.0222

EPHEMERIS_TYPE = 0
CLASSIFICATION_TYPE = U
NORAD_CAT_ID   = 84292
ELEMENT_SET_NO = 999
REV_AT_EPOCH   = 22549
BSTAR          = .23707E-2
MEAN_MOTION_DOT = .4214E-4
MEAN_MOTION_DDOT = 0

CCSDS_OMM_VERS = 2.0
CREATION_DATE  = 
ORIGINATOR     = 

OBJECT_NAME    = UNKNOWN
OBJECT_ID      = 
CENTER_NAME    = EARTH
REF_FRAME      = TEME
TIME_SYSTEM    = UTC
MEAN_ELEMENT_THEORY = SGP/SGP4

EPOCH          = 2025-10-27T04:45:28.018944
MEAN_MOTION    = 12.67246146
ECCENTRICITY   = .0044767
INCLINATION    = 101.7191
RA_OF_ASC_NODE = 83.7450
ARG_OF_PERICENTER = 135.4950
MEAN_ANOMALY   = 45.4018

EPHEMERIS_TYPE = 0
CLASSIFICATION_TYPE = U
NORAD_CAT_ID   = 84406
ELEMENT_SET_NO = 999
REV_AT_EPOCH   = 4339
BSTAR          = .42928E-2
MEAN_MOTION_DOT = .778E-5
MEAN_MOTION_DDOT = 0

CCSDS_OMM_VERS = 2.0
CREATION_DATE  = 
ORIGINATOR     = 

OBJECT_NAME    = UNKNOWN
OBJECT_ID      = 
CENTER_NAME    = EARTH
REF_FRAME      = TEME
TIME_SYSTEM    = UTC
MEAN_ELEMENT_THEORY = SGP/SGP4

EPOCH          = 2025-11-01T15:10:33.953952
MEAN_MOTION    = 2.05752514
ECCENTRICITY   = .7202455
INCLINATION    = 19.5254
RA_OF_ASC_NODE = 334.5604
ARG_OF_PERICENTER = 39.7887
MEAN_ANOMALY   = 355.3376

EPHEMERIS_TYPE = 0
CLASSIFICATION_TYPE = U
NORAD_CAT_ID   = 84407
ELEMENT_SET_NO = 999
REV_AT_EPOCH   = 7502
BSTAR          = -.22165E-1
MEAN_MOTION_DOT = -.307E-5
MEAN_MOTION_DDOT = 0

CCSDS_OMM_VERS = 2.0
CREATION_DATE  = 
ORIGINATOR     = 

OBJECT_NAME    = UNKNOWN
OBJECT_ID      = 
CENTER_NAME    = EARTH
REF_FRAME      = TEME
TIME_SYSTEM    = UTC
MEAN_ELEMENT_THEORY = SGP/SGP4

EPOCH          = 2025-10-31T02:27:35.012448
MEAN_MOTION    = 2.19884874
ECCENTRICITY   = .7102939
INCLINATION    = 18.1381
RA_OF_ASC_NODE = 172.4102
ARG_OF_PERICENTER = 356.7600
MEAN_ANOMALY   = 0.5795

EPHEMERIS_TYPE = 0
CLASSIFICATION_TYPE = U
NORAD_CAT_ID   = 84575
ELEMENT_SET_NO = 999
REV_AT_EPOCH   = 6452
BSTAR          = -.28622E-2
MEAN_MOTION_DOT = -.121E-5
MEAN_MOTION_DDOT = 0

CCSDS_OMM_VERS = 2.0
CREATION_DATE  = 
ORIGINATOR     = 

OBJECT_NAME    = UNKNOWN
OBJECT_ID      = 
CENTER_NAME    = EARTH
REF_FRAME      = TEME
TIME_SYSTEM    = UTC
MEAN_ELEMENT_THEORY = SGP/SGP4

EPOCH          = 2025-11-01T13:55:12.906336
MEAN_MOTION    = 2.99861742
ECCENTRICITY   = .6569119
INCLINATION    = 2.1937
RA_OF_ASC_NODE = 269.4671
ARG_OF_PERICENTER = 7.9190
MEAN_ANOMALY   = 165.9842

EPHEMERIS_TYPE = 0
CLASSIFICATION_TYPE = U
NORAD_CAT_ID   = 84932
ELEMENT_SET_NO = 999
REV_AT_EPOCH   = 13054
BSTAR          = .73426E-2
MEAN_MOTION_DOT = .894E-5
MEAN_MOTION_DDOT = 0

CCSDS_OMM_VERS = 2.0
CREATION_DATE  = 
ORIGINATOR     = 

OBJECT_NAME    = UNKNOWN
OBJECT_ID      = 
CENTER_NAME    = EARTH
REF_FRAME      = TEME
TIME_SYSTEM    = UTC
MEAN_ELEMENT_THEORY = SGP/SGP4

EPOCH          = 2025-11-01T16:32:27.834720
MEAN_MOTION    = 14.40938781
ECCENTRICITY   = .0046043
INCLINATION    = 98.4161
RA_OF_ASC_NODE = 277.3557
ARG_OF_PERICENTER = 286.6137
MEAN_ANOMALY   = 258.2586

EPHEMERIS_TYPE = 0
CLASSIFICATION_TYPE = U
NORAD_CAT_ID   = 85004
ELEMENT_SET_NO = 999
REV_AT_EPOCH   = 62498
BSTAR          = .51362E-3
MEAN_MOTION_DOT = .1626E-4
MEAN_MOTION_DDOT = 0

CCSDS_OMM_VERS = 2.0
CREATION_DATE  = 
ORIGINATOR     = 

OBJECT_NAME    = UNKNOWN
OBJECT_ID      = 
CENTER_NAME    = EARTH
REF_FRAME      = TEME
TIME_SYSTEM    = UTC
MEAN_ELEMENT_THEORY = SGP/SGP4

EPOCH          = 2025-10-25T13:54:18.523584
MEAN_MOTION    = 13.74894221
ECCENTRICITY   = .002766
INCLINATION    = 99.2507
RA_OF_ASC_NODE = 161.9637
ARG_OF_PERICENTER = 18.6065
MEAN_ANOMALY   = 10.8836

EPHEMERIS_TYPE = 0
CLASSIFICATION_TYPE = U
NORAD_CAT_ID   = 85010
ELEMENT_SET_NO = 999
REV_AT_EPOCH   = 59730
BSTAR          = .14906E-2
MEAN_MOTION_DOT = .1382E-4
MEAN_MOTION_DDOT = 0

CCSDS_OMM_VERS = 2.0
CREATION_DATE  = 
ORIGINATOR     = 

OBJECT_NAME    = UNKNOWN
OBJECT_ID      = 
CENTER_NAME    = EARTH
REF_FRAME      = TEME
TIME_SYSTEM    = UTC
MEAN_ELEMENT_THEORY = SGP/SGP4

EPOCH          = 2025-10-31T05:13:15.086208
MEAN_MOTION    = 14.62205908
ECCENTRICITY   = .0014676
INCLINATION    = 74.0463
RA_OF_ASC_NODE = 119.5726
ARG_OF_PERICENTER = 33.3742
MEAN_ANOMALY   = 326.8347

EPHEMERIS_TYPE = 0
CLASSIFICATION_TYPE = U
NORAD_CAT_ID   = 85015
ELEMENT_SET_NO = 999
REV_AT_EPOCH   = 63639
BSTAR          = .14502E-3
MEAN_MOTION_DOT = .701E-5
MEAN_MOTION_DDOT = 0

CCSDS_OMM_VERS = 2.0
CREATION_DATE  = 
ORIGINATOR     = 

OBJECT_NAME    = UNKNOWN
OBJECT_ID      = 
CENTER_NAME    = EARTH
REF_FRAME      = TEME
TIME_SYSTEM    = UTC
MEAN_ELEMENT_THEORY = SGP/SGP4

EPOCH          = 2025-10-31T12:04:13.608192
MEAN_MOTION    = 14.71033187
ECCENTRICITY   = .0004193
INCLINATION    = 99.8531
RA_OF_ASC_NODE = 311.1001
ARG_OF_PERICENTER = 78.0895
MEAN_ANOMALY   = 73.0396

EPHEMERIS_TYPE = 0
CLASSIFICATION_TYPE = U
NORAD_CAT_ID   = 85023
ELEMENT_SET_NO = 999
REV_AT_EPOCH   = 62261
BSTAR          = .60605E-2
MEAN_MOTION_DOT = .37356E-3
MEAN_MOTION_DDOT = 0

CCSDS_OMM_VERS = 2.0
CREATION_DATE  = 
ORIGINATOR     = 

OBJECT_NAME    = UNKNOWN
OBJECT_ID      = 
CENTER_NAME    = EARTH
REF_FRAME      = TEME
TIME_SYSTEM    = UTC
MEAN_ELEMENT_THEORY = SGP/SGP4

EPOCH          = 2025-11-01T02:20:15.629568
MEAN_MOTION    = 13.74216151
ECCENTRICITY   = .0180969
INCLINATION    = 66.0412
RA_OF_ASC_NODE = 203.4813
ARG_OF_PERICENTER = 212.4049
MEAN_ANOMALY   = 146.5800

EPHEMERIS_TYPE = 0
CLASSIFICATION_TYPE = U
NORAD_CAT_ID   = 85027
ELEMENT_SET_NO = 999
REV_AT_EPOCH   = 59889
BSTAR          = .17179E-3
MEAN_MOTION_DOT = .103E-5
MEAN_MOTION_DDOT = 0

CCSDS_OMM_VERS = 2.0
CREATION_DATE  = 
ORIGINATOR     = 

OBJECT_NAME    = UNKNOWN
OBJECT_ID      = 
CENTER_NAME    = EARTH
REF_FRAME      = TEME
TIME_SYSTEM    = UTC
MEAN_ELEMENT_THEORY = SGP/SGP4

EPOCH          = 2025-11-01T14:26:49.477920
MEAN_MOTION    = 13.42461465
ECCENTRICITY   = .0110784
INCLINATION    = 102.2466
RA_OF_ASC_NODE = 262.3973
ARG_OF_PERICENTER = 88.4152
MEAN_ANOMALY   = 272.9654

EPHEMERIS_TYPE = 0
CLASSIFICATION_TYPE = U
NORAD_CAT_ID   = 85047
ELEMENT_SET_NO = 999
REV_AT_EPOCH   = 57113
BSTAR          = .26233E-1
MEAN_MOTION_DOT = .15352E-3
MEAN_MOTION_DDOT = 0

CCSDS_OMM_VERS = 2.0
CREATION_DATE  = 
ORIGINATOR     = 

OBJECT_NAME    = UNKNOWN
OBJECT_ID      = 
CENTER_NAME    = EARTH
REF_FRAME      = TEME
TIME_SYSTEM    = UTC
MEAN_ELEMENT_THEORY = SGP/SGP4

EPOCH          = 2025-10-30T20:52:20.811648
MEAN_MOTION    = 12.76650631
ECCENTRICITY   = .0279658
INCLINATION    = 102.3941
RA_OF_ASC_NODE = 283.7788
ARG_OF_PERICENTER = 278.7139
MEAN_ANOMALY   = 107.9932

EPHEMERIS_TYPE = 0
CLASSIFICATION_TYPE = U
NORAD_CAT_ID   = 85061
ELEMENT_SET_NO = 999
REV_AT_EPOCH   = 55031
BSTAR          = .17956E-1
MEAN_MOTION_DOT = .4537E-4
MEAN_MOTION_DDOT = 0

CCSDS_OMM_VERS = 2.0
CREATION_DATE  = 
ORIGINATOR     = 

OBJECT_NAME    = UNKNOWN
OBJECT_ID      = 
CENTER_NAME    = EARTH
REF_FRAME      = TEME
TIME_SYSTEM    = UTC
MEAN_ELEMENT_THEORY = SGP/SGP4

EPOCH          = 2025-11-01T06:12:19.755936
MEAN_MOTION    = 14.40655942
ECCENTRICITY   = .0012448
INCLINATION    = 74.0444
RA_OF_ASC_NODE = 299.4709
ARG_OF_PERICENTER = 184.9025
MEAN_ANOMALY   = 193.8758

EPHEMERIS_TYPE = 0
CLASSIFICATION_TYPE = U
NORAD_CAT_ID   = 85100
ELEMENT_SET_NO = 999
REV_AT_EPOCH   = 62737
BSTAR          = .17015E-3
MEAN_MOTION_DOT = .517E-5
MEAN_MOTION_DDOT = 0

CCSDS_OMM_VERS = 2.0
CREATION_DATE  = 
ORIGINATOR     = 

OBJECT_NAME    = UNKNOWN
OBJECT_ID      = 
CENTER_NAME    = EARTH
REF_FRAME      = TEME
TIME_SYSTEM    = UTC
MEAN_ELEMENT_THEORY = SGP/SGP4

EPOCH          = 2025-11-01T12:24:33.391296
MEAN_MOTION    = 13.72819000
ECCENTRICITY   = .001054
INCLINATION    = 100.0565
RA_OF_ASC_NODE = 44.3525
ARG_OF_PERICENTER = 119.3820
MEAN_ANOMALY   = 257.2050

EPHEMERIS_TYPE = 0
CLASSIFICATION_TYPE = U
NORAD_CAT_ID   = 85106
ELEMENT_SET_NO = 999
REV_AT_EPOCH   = 59741
BSTAR          = .82383E-3
MEAN_MOTION_DOT = .71E-5
MEAN_MOTION_DDOT = 0

CCSDS_OMM_VERS = 2.0
CREATION_DATE  = 
ORIGINATOR     = 

OBJECT_NAME    = UNKNOWN
OBJECT_ID      = 
CENTER_NAME    = EARTH
REF_FRAME      = TEME
TIME_SYSTEM    = UTC
MEAN_ELEMENT_THEORY = SGP/SGP4

EPOCH          = 2025-10-31T08:51:47.756736
MEAN_MOTION    = 14.75951548
ECCENTRICITY   = .0008865
INCLINATION    = 98.4058
RA_OF_ASC_NODE = 166.6380
ARG_OF_PERICENTER = 291.6092
MEAN_ANOMALY   = 68.4171

EPHEMERIS_TYPE = 0
CLASSIFICATION_TYPE = U
NORAD_CAT_ID   = 85151
ELEMENT_SET_NO = 999
REV_AT_EPOCH   = 47327
BSTAR          = .39458E-2
MEAN_MOTION_DOT = .272E-3
MEAN_MOTION_DDOT = 0

CCSDS_OMM_VERS = 2.0
CREATION_DATE  = 
ORIGINATOR     = 

OBJECT_NAME    = UNKNOWN
OBJECT_ID      = 
CENTER_NAME    = EARTH
REF_FRAME      = TEME
TIME_SYSTEM    = UTC
MEAN_ELEMENT_THEORY = SGP/SGP4

EPOCH          = 2025-10-30T15:59:54.934656
MEAN_MOTION    = 13.71433851
ECCENTRICITY   = .0216984
INCLINATION    = 99.8538
RA_OF_ASC_NODE = 83.4896
ARG_OF_PERICENTER = 64.6659
MEAN_ANOMALY   = 309.8471

EPHEMERIS_TYPE = 0
CLASSIFICATION_TYPE = U
NORAD_CAT_ID   = 85210
ELEMENT_SET_NO = 999
REV_AT_EPOCH   = 59625
BSTAR          = .84961E-3
MEAN_MOTION_DOT = .858E-5
MEAN_MOTION_DDOT = 0

